CCSDS_OMM_VERS = 2.0
CREATION_DATE  = 
ORIGINATOR     = 

OBJECT_NAME    = IDEFIX & ARIANE 42P R/B
OBJECT_ID      = 2002-021B
CENTER_NAME    = EARTH
REF_FRAME      = TEME
TIME_SYSTEM    = UTC
MEAN_ELEMENT_THEORY = SGP/SGP4

EPOCH          = 2025-12-10T06:37:06.146976
MEAN_MOTION    = 14.30947623
ECCENTRICITY   = .00129374
INCLINATION    = 98.5782
RA_OF_ASC_NODE = 278.9986
ARG_OF_PERICENTER = 90.2566
MEAN_ANOMALY   = 270.0099

EPHEMERIS_TYPE = 0
CLASSIFICATION_TYPE = U
NORAD_CAT_ID   = 27422
ELEMENT_SET_NO = 999
REV_AT_EPOCH   = 23123
BSTAR          = .22432452E-3
MEAN_MOTION_DOT = .546E-5
MEAN_MOTION_DDOT = 0

CCSDS_OMM_VERS = 2.0
CREATION_DATE  = 
ORIGINATOR     = 

OBJECT_NAME    = AQUA
OBJECT_ID      = 2002-022A
CENTER_NAME    = EARTH
REF_FRAME      = TEME
TIME_SYSTEM    = UTC
MEAN_ELEMENT_THEORY = SGP/SGP4

EPOCH          = 2025-12-10T05:38:30.505056
MEAN_MOTION    = 14.61799707
ECCENTRICITY   = .00009968
INCLINATION    = 98.4035
RA_OF_ASC_NODE = 305.0734
ARG_OF_PERICENTER = 114.3542
MEAN_ANOMALY   = 358.3102

EPHEMERIS_TYPE = 0
CLASSIFICATION_TYPE = U
NORAD_CAT_ID   = 27424
ELEMENT_SET_NO = 999
REV_AT_EPOCH   = 25566
BSTAR          = .3682138E-3
MEAN_MOTION_DOT = .1789E-4
MEAN_MOTION_DDOT = 0

CCSDS_OMM_VERS = 2.0
CREATION_DATE  = 
ORIGINATOR     = 

OBJECT_NAME    = CZ-4B R/B
OBJECT_ID      = 2002-024C
CENTER_NAME    = EARTH
REF_FRAME      = TEME
TIME_SYSTEM    = UTC
MEAN_ELEMENT_THEORY = SGP/SGP4

EPOCH          = 2025-12-10T04:06:37.840320
MEAN_MOTION    = 14.14527135
ECCENTRICITY   = .00491638
INCLINATION    = 98.9000
RA_OF_ASC_NODE = 32.9517
ARG_OF_PERICENTER = 277.3474
MEAN_ANOMALY   = 150.9105

EPHEMERIS_TYPE = 0
CLASSIFICATION_TYPE = U
NORAD_CAT_ID   = 27432
ELEMENT_SET_NO = 999
REV_AT_EPOCH   = 21658
BSTAR          = .76550605E-4
MEAN_MOTION_DOT = .103E-5
MEAN_MOTION_DDOT = 0

CCSDS_OMM_VERS = 2.0
CREATION_DATE  = 
ORIGINATOR     = 

OBJECT_NAME    = MIDORI II (ADEOS-II)
OBJECT_ID      = 2002-056A
CENTER_NAME    = EARTH
REF_FRAME      = TEME
TIME_SYSTEM    = UTC
MEAN_ELEMENT_THEORY = SGP/SGP4

EPOCH          = 2025-12-10T06:21:45.173952
MEAN_MOTION    = 14.29203221
ECCENTRICITY   = .00000592
INCLINATION    = 98.7632
RA_OF_ASC_NODE = 297.2084
ARG_OF_PERICENTER = 111.4946
MEAN_ANOMALY   = 248.6242

EPHEMERIS_TYPE = 0
CLASSIFICATION_TYPE = U
NORAD_CAT_ID   = 27597
ELEMENT_SET_NO = 999
REV_AT_EPOCH   = 19752
BSTAR          = .20904146E-3
MEAN_MOTION_DOT = .486E-5
MEAN_MOTION_DDOT = 0

CCSDS_OMM_VERS = 2.0
CREATION_DATE  = 
ORIGINATOR     = 

OBJECT_NAME    = H-2A R/B
OBJECT_ID      = 2002-056E
CENTER_NAME    = EARTH
REF_FRAME      = TEME
TIME_SYSTEM    = UTC
MEAN_ELEMENT_THEORY = SGP/SGP4

EPOCH          = 2025-12-10T07:53:20.310720
MEAN_MOTION    = 14.33673152
ECCENTRICITY   = .0071439
INCLINATION    = 98.3062
RA_OF_ASC_NODE = 303.1814
ARG_OF_PERICENTER = 68.2091
MEAN_ANOMALY   = 100.9427

EPHEMERIS_TYPE = 0
CLASSIFICATION_TYPE = U
NORAD_CAT_ID   = 27601
ELEMENT_SET_NO = 999
REV_AT_EPOCH   = 20130
BSTAR          = .22663397E-3
MEAN_MOTION_DOT = .606E-5
MEAN_MOTION_DDOT = 0

CCSDS_OMM_VERS = 2.0
CREATION_DATE  = 
ORIGINATOR     = 

OBJECT_NAME    = CZ-4B R/B
OBJECT_ID      = 2003-049C
CENTER_NAME    = EARTH
REF_FRAME      = TEME
TIME_SYSTEM    = UTC
MEAN_ELEMENT_THEORY = SGP/SGP4

EPOCH          = 2025-12-09T10:22:09.482016
MEAN_MOTION    = 14.54905026
ECCENTRICITY   = .00488392
INCLINATION    = 98.6786
RA_OF_ASC_NODE = 329.8711
ARG_OF_PERICENTER = 146.0149
MEAN_ANOMALY   = 214.4192

EPHEMERIS_TYPE = 0
CLASSIFICATION_TYPE = U
NORAD_CAT_ID   = 28059
ELEMENT_SET_NO = 999
REV_AT_EPOCH   = 17347
BSTAR          = .17889283E-3
MEAN_MOTION_DOT = .73E-5
MEAN_MOTION_DDOT = 0

CCSDS_OMM_VERS = 2.0
CREATION_DATE  = 
ORIGINATOR     = 

OBJECT_NAME    = CZ-2C R/B
OBJECT_ID      = 2004-012C
CENTER_NAME    = EARTH
REF_FRAME      = TEME
TIME_SYSTEM    = UTC
MEAN_ELEMENT_THEORY = SGP/SGP4

EPOCH          = 2025-12-10T07:04:29.942400
MEAN_MOTION    = 15.55258949
ECCENTRICITY   = .00166442
INCLINATION    = 97.7424
RA_OF_ASC_NODE = 36.7138
ARG_OF_PERICENTER = 280.1078
MEAN_ANOMALY   = 79.8298

EPHEMERIS_TYPE = 0
CLASSIFICATION_TYPE = U
NORAD_CAT_ID   = 28222
ELEMENT_SET_NO = 999
REV_AT_EPOCH   = 19034
BSTAR          = .73084309E-3
MEAN_MOTION_DOT = .49886E-3
MEAN_MOTION_DDOT = 0

CCSDS_OMM_VERS = 2.0
CREATION_DATE  = 
ORIGINATOR     = 

OBJECT_NAME    = SL-16 R/B
OBJECT_ID      = 2004-021B
CENTER_NAME    = EARTH
REF_FRAME      = TEME
TIME_SYSTEM    = UTC
MEAN_ELEMENT_THEORY = SGP/SGP4

EPOCH          = 2025-12-10T06:54:41.141952
MEAN_MOTION    = 14.14581462
ECCENTRICITY   = .00054324
INCLINATION    = 71.0020
RA_OF_ASC_NODE = 60.1105
ARG_OF_PERICENTER = 203.9687
MEAN_ANOMALY   = 156.1184

EPHEMERIS_TYPE = 0
CLASSIFICATION_TYPE = U
NORAD_CAT_ID   = 28353
ELEMENT_SET_NO = 999
REV_AT_EPOCH   = 11019
BSTAR          = -.7534476E-4
MEAN_MOTION_DOT = -.192E-5
MEAN_MOTION_DDOT = 0

CCSDS_OMM_VERS = 2.0
CREATION_DATE  = 
ORIGINATOR     = 

OBJECT_NAME    = CZ-4B R/B
OBJECT_ID      = 2004-035C
CENTER_NAME    = EARTH
REF_FRAME      = TEME
TIME_SYSTEM    = UTC
MEAN_ELEMENT_THEORY = SGP/SGP4

EPOCH          = 2025-12-10T08:00:44.995104
MEAN_MOTION    = 15.27305307
ECCENTRICITY   = .00316812
INCLINATION    = 97.3612
RA_OF_ASC_NODE = 14.7097
ARG_OF_PERICENTER = 286.5032
MEAN_ANOMALY   = 73.2727

EPHEMERIS_TYPE = 0
CLASSIFICATION_TYPE = U
NORAD_CAT_ID   = 28415
ELEMENT_SET_NO = 999
REV_AT_EPOCH   = 16626
BSTAR          = .43294061E-3
MEAN_MOTION_DOT = .11681E-3
MEAN_MOTION_DDOT = 0

CCSDS_OMM_VERS = 2.0
CREATION_DATE  = 
ORIGINATOR     = 

OBJECT_NAME    = CZ-2C R/B
OBJECT_ID      = 2004-046B
CENTER_NAME    = EARTH
REF_FRAME      = TEME
TIME_SYSTEM    = UTC
MEAN_ELEMENT_THEORY = SGP/SGP4

EPOCH          = 2025-12-10T05:22:58.657728
MEAN_MOTION    = 14.26938814
ECCENTRICITY   = .01405797
INCLINATION    = 98.1988
RA_OF_ASC_NODE = 259.7585
ARG_OF_PERICENTER = 59.6890
MEAN_ANOMALY   = 301.8114

EPHEMERIS_TYPE = 0
CLASSIFICATION_TYPE = U
NORAD_CAT_ID   = 28480
ELEMENT_SET_NO = 999
REV_AT_EPOCH   = 9574
BSTAR          = .13759744E-3
MEAN_MOTION_DOT = .331E-5
MEAN_MOTION_DDOT = 0

CCSDS_OMM_VERS = 2.0
CREATION_DATE  = 
ORIGINATOR     = 

OBJECT_NAME    = ARIANE 5 R/B
OBJECT_ID      = 2004-049H
CENTER_NAME    = EARTH
REF_FRAME      = TEME
TIME_SYSTEM    = UTC
MEAN_ELEMENT_THEORY = SGP/SGP4

EPOCH          = 2025-12-10T03:49:39.685440
MEAN_MOTION    = 14.85001957
ECCENTRICITY   = .00833755
INCLINATION    = 98.2522
RA_OF_ASC_NODE = 144.3483
ARG_OF_PERICENTER = 281.4522
MEAN_ANOMALY   = 77.7337

EPHEMERIS_TYPE = 0
CLASSIFICATION_TYPE = U
NORAD_CAT_ID   = 28499
ELEMENT_SET_NO = 999
REV_AT_EPOCH   = 13250
BSTAR          = .19320014E-3
MEAN_MOTION_DOT = .1688E-4
MEAN_MOTION_DDOT = 0

CCSDS_OMM_VERS = 2.0
CREATION_DATE  = 
ORIGINATOR     = 

OBJECT_NAME    = CZ-2D R/B
OBJECT_ID      = 2005-024B
CENTER_NAME    = EARTH
REF_FRAME      = TEME
TIME_SYSTEM    = UTC
MEAN_ELEMENT_THEORY = SGP/SGP4

EPOCH          = 2025-12-10T00:22:50.310048
MEAN_MOTION    = 15.52959809
ECCENTRICITY   = .00059129
INCLINATION    = 97.3637
RA_OF_ASC_NODE = 351.3910
ARG_OF_PERICENTER = 16.0087
MEAN_ANOMALY   = 344.1352

EPHEMERIS_TYPE = 0
CLASSIFICATION_TYPE = U
NORAD_CAT_ID   = 28738
ELEMENT_SET_NO = 999
REV_AT_EPOCH   = 12583
BSTAR          = .6191041E-3
MEAN_MOTION_DOT = .38604E-3
MEAN_MOTION_DDOT = 0

