IDEFIX & ARIANE 42P R/B 
1 27422U 02021B   25344.27576559  .00000546  00000+0  22432-3 0  9996
2 27422  98.5782 278.9986 0012937  90.2566 270.0099 14.30947623231234
AQUA                    
1 27424U 02022A   25344.23507529  .00001789  00000+0  36821-3 0  9993
2 27424  98.4035 305.0734 0000996 114.3542 358.3102 14.61799707255663
CZ-4B R/B               
1 27432U 02024C   25344.17127130  .00000103  00000+0  76551-4 0  9997
2 27432  98.9000  32.9517 0049163 277.3474 150.9105 14.14527135216586
MIDORI II (ADEOS-II)    
1 27597U 02056A   25344.26510618  .00000486  00000+0  20904-3 0  9995
2 27597  98.7632 297.2084 0000059 111.4946 248.6242 14.29203221197527
H-2A R/B                
1 27601U 02056E   25344.32870730  .00000606  00000+0  22663-3 0  9990
2 27601  98.3062 303.1814 0071439  68.2091 100.9427 14.33673152201300
CZ-4B R/B               
1 28059U 03049C   25343.43205419  .00000730  00000+0  17889-3 0  9990
2 28059  98.6786 329.8711 0048839 146.0149 214.4192 14.54905026173479
CZ-2C R/B               
1 28222U 04012C   25344.29479100  .00049886  00000+0  73084-3 0  9992
2 28222  97.7424  36.7138 0016644 280.1078  79.8298 15.55258949190349
SL-16 R/B               
1 28353U 04021B   25344.28797618 -.00000192  00000+0 -75345-4 0  9995
2 28353  71.0020  60.1105 0005432 203.9687 156.1184 14.14581462110199
CZ-4B R/B               
1 28415U 04035C   25344.33385411  .00011681  00000+0  43294-3 0  9999
2 28415  97.3612  14.7097 0031681 286.5032  73.2727 15.27305307166265
CZ-2C R/B               
1 28480U 04046B   25344.22429002  .00000331  00000+0  13760-3 0  9991
2 28480  98.1988 259.7585 0140579  59.6890 301.8114 14.26938814 95740
ARIANE 5 R/B            
1 28499U 04049H   25344.15948710  .00001688  00000+0  19320-3 0  9992
2 28499  98.2522 144.3483 0083375 281.4522  77.7337 14.85001957132504
CZ-2D R/B               
1 28738U 05024B   25344.01586007  .00038604  00000+0  61910-3 0  9994
2 28738  97.3637 351.3910 0005912  16.0087 344.1352 15.52959809125830
